SCD 1                   
1 22490U 93009B   26229.25224510  .00000351  00000+0  45268-4 0  9997
2 22490  24.9681 190.5299 0042122  64.5479  69.1132 14.46140239769963
TECHSAT 1B (GO-32)      
1 25397U 98043D   26229.24580734  .00000014  00000+0  26308-4 0  9991
2 25397  99.0120 223.5582 0002188  63.0920 297.0482 14.24438394460021
SCD 2                   
1 25504U 98060A   26229.21463087  .00000297  00000+0  32066-4 0  9999
2 25504  24.9959  55.7972 0016909  48.4712 112.4439 14.45543967469160
DLR-TUBSAT              
1 25757U 99029B   26228.98554232  .00000016  00000+0  15939-4 0  9990
2 25757  98.6742 226.5034 0014530 160.8571 199.3172 14.52439277442070
TERRA                   
1 25994U 99068A   26229.24239796  .00000209  00000+0  51482-4 0  9998
2 25994  97.9411 276.3543 0003294  58.3468  16.1112 14.61143733418529
MAROC-TUBSAT            
1 27004U 01056D   26228.99151745 -.00000042  00000+0  57749-5 0  9999
2 27004  99.8124  47.0102 0019666 349.6793 173.3888 13.70264622234517
AQUA                    
1 27424U 02022A   26229.23190028  .00000439  00000+0  97144-4 0  9995
2 27424  98.4338 199.7528 0001786  90.0267 327.2459 14.62167050292190
SHIYAN-1 (SY-1)         
1 28220U 04012A   26229.21961825  .00009766  00000+0  28843-3 0  9991
2 28220  97.8654 311.3116 0006336 151.7068 208.4520 15.35171851220458
AURA                    
1 28376U 04026A   26229.19777488  .00000438  00000+0  98293-4 0  9999
2 28376  98.3464 186.1739 0001707  85.2047 274.9348 14.61406146175124
IRS-P5 (CARTOSAT-1)     
1 28649U 05017A   26229.00989272  .00000859  00000+0  91749-4 0  9995
2 28649  97.5304 249.3177 0001294 130.3404 229.7928 14.91182981152880
SINAH 1                 
1 28893U 05043D   26229.28538512  .00000163  00000+0  40305-4 0  9992
2 28893  98.2940   3.9938 0015740  85.8285 274.4715 14.64193714109469
RESURS-DK 1             
1 29228U 06021A   26228.97820874  .00001238  00000+0  75215-4 0  9994
2 29228  69.9312 182.1637 0006367 240.8506 119.2024 15.13417829111777
ARIRANG-2 (KOMPSAT-2)   
1 29268U 06031A   26229.30658101  .00000075  00000+0  22535-4 0  9994
2 29268  97.8329  50.8057 0013077 237.3578 225.6230 14.64690133 70425
LAPAN-TUBSAT            
1 29709U 07001A   26229.26137603 -.00000236  00000+0 -20378-4 0  9990
2 29709  98.1381 229.8759 0012115 354.2501   5.8573 14.86002337 60223
HAIYANG-1B              
1 31113U 07010A   26228.90510811  .00000045  00000+0  32983-4 0  9999
2 31113  98.3556 208.4120 0014140  26.4572 333.7331 14.31039867  9329
COSMO-SKYMED 1          
1 31598U 07023A   26229.28566520  .00002090  00000+0  18521-3 0  9993
2 31598  97.8849  61.6662 0001851  94.0263 266.1170 14.97343191 38937
TERRASAR-X              
1 31698U 07026A   26228.98817194  .00000090  00000+0  74962-5 0  9990
2 31698  97.4459 235.8330 0001573  90.1107 270.0308 15.19151231 62451
WORLDVIEW-1 (WV-1)      
1 32060U 07041A   26229.27196601  .00003986  00000+0  16585-3 0  9999
2 32060  97.3838 348.1482 0001743 113.6438 246.4983 15.24333893 52185
YAOGAN-3                
1 32289U 07055A   26229.26955947  .00000503  00000+0  56540-4 0  9990
2 32289  97.8131 258.5450 0001415  90.4340 269.7040 14.90976974 14970
COSMO-SKYMED 2          
1 32376U 07059A   26229.32559141  .00000198  00000+0  31431-4 0  9996
2 32376  97.8909  52.0459 0001500  90.4077 269.7308 14.82157749 11064
RADARSAT-2              
1 32382U 07061A   26229.33230228  .00000325  00000+0  14286-3 0  9999
2 32382  98.5803 235.3975 0001285  82.4335 277.6993 14.29982707974695
CARTOSAT-2A             
1 32783U 08021A   26229.26241354 -.00000090  00000+0 -53879-5 0  9999
2 32783  97.7586 275.8743 0010256 274.5395  85.4645 14.79301913987837
HUANJING 1A (HJ-1A)     
1 33320U 08041A   26229.25281264  .00001381  00000+0  17122-3 0  9993
2 33320  97.6739 212.7516 0017633 301.4806  58.4686 14.84113870967466
HUANJING 1B (HJ-1B)     
1 33321U 08041B   26229.25006853  .00000861  00000+0  11011-3 0  9996
2 33321  97.6572 215.7334 0036069 345.6634  14.3554 14.83418921967465
GEOEYE 1                
1 33331U 08042A   26229.22618855  .00000226  00000+0  51431-4 0  9992
2 33331  98.1297 302.4294 0003769 210.4124 149.6861 14.64671830959080
THEOS                   
1 33396U 08049A   26229.33570925  .00000178  00000+0  10326-3 0  9990
2 33396  98.5522 284.6198 0001222  93.6449 266.4867 14.20140795926646
COSMO-SKYMED 3          
1 33412U 08054A   26229.29106830  .00002477  00000+0  16805-3 0  9992
2 33412  97.8200  88.8667 0016884  61.2308 299.0613 15.07282018966141
YAOGAN-4                
1 33446U 08061A   26228.81402514  .00000464  00000+0  63272-4 0  9997
2 33446  97.9305 161.8814 0012985 229.6148 130.3933 14.83299481954651
GOSAT (IBUKI)           
1 33492U 09002A   26228.88869515  .00000361  00000+0  72082-4 0  9994
2 33492  98.0933 339.2225 0001294 107.8948 252.2398 14.67537821940361
DEIMOS-1                
1 35681U 09041A   26229.29730934  .00000198  00000+0  36347-4 0  9999
2 35681  97.7484  23.9039 0001957  43.9109 316.2256 14.75289822915893
DUBAISAT-1              
1 35682U 09041B   26229.13587390  .00000502  00000+0  81810-4 0  9993
2 35682  98.0130   1.7555 0009308 230.1225 129.9166 14.75209649914088
OCEANSAT-2              
1 35931U 09051A   26229.24856017  .00000064  00000+0  69546-4 0  9993
2 35931  98.2394 210.0131 0017816  63.3107 296.9881 13.99672842887871
WORLDVIEW-2 (WV-2)      
1 35946U 09055A   26229.26001159  .00000061  00000+0  34548-4 0  9995
2 35946  98.4756 301.8740 0005195  51.6834 308.4820 14.37914068884422
SMOS                    
1 36036U 09059A   26229.27697275  .00000173  00000+0  69257-4 0  9990
2 36036  98.4439  55.7203 0001426  93.7645 266.3706 14.39751370882240
YAOGAN-7                
1 36110U 09069A   26228.94956642  .00000242  00000+0  40665-4 0  9992
2 36110  97.9974 114.4154 0023946 200.2259 159.8005 14.78058358898600
TANDEM-X                
1 36605U 10030A   26222.46720890  .00000080  00000+0  70097-5 0  9999
2 36605  97.4473 229.4058 0001910  89.3837 270.7616 15.19145371894888
CARTOSAT-2B             
1 36795U 10035A   26229.31074516  .00000773  00000+0  11264-3 0  9990
2 36795  97.9905 279.4547 0011373   1.2734 358.8504 14.78646005868883
YAOGAN-10               
1 36834U 10038A   26229.32475786  .00001584  00000+0  18974-3 0  9998
2 36834  97.8964 252.2442 0001493  85.1181  36.8204 14.85511825866284
COSMO-SKYMED 4          
1 37216U 10060A   26229.27074690  .00000327  00000+0  47641-4 0  9999
2 37216  97.8907  51.9933 0001455  83.6815 276.4564 14.82157699853616
RESOURCESAT-2           
1 37387U 11015A   26229.25170470  .00000013  00000+0  26175-4 0  9991
2 37387  98.7600 296.2575 0012432  83.1483 277.1108 14.21605049794856
HAIYANG-2A              
1 37781U 11043A   26229.31034036  .00000184  00000+0  24924-3 0  9992
2 37781  99.3426 230.5302 0001646 151.0413 209.0826 13.72224615755049
RASAT                   
1 37791U 11044D   26229.31146424  .00000243  00000+0  50665-4 0  9997
2 37791  98.0573 319.7753 0020640   2.6046  68.7338 14.68216022802159
SRMSAT                  
1 37841U 11058D   26229.17380172  .00000342  00000+0  41757-4 0  9994
2 37841  19.9728  50.3230 0011708 154.7715   2.2736 14.11586672766449
PLEIADES 1A             
1 38012U 11076F   26229.31472228 -.00000072  00000+0 -57645-5 0  9991
2 38012  98.1942 303.5855 0001082  76.1726 325.5577 14.58560447780900
ZIYUAN 1-02C (ZY 1-02C) 
1 38038U 11079A   26229.30192006  .00000197  00000+0  78850-4 0  9990
2 38038  98.4027 295.3217 0007512 119.2709 328.1585 14.38256212767991
ARIRANG-3 (KOMPSAT-3)   
1 38338U 12025B   26229.27702868  .00000236  00000+0  56114-4 0  9997
2 38338  98.1226 185.6998 0004052 289.5381  70.5383 14.62251785760277
EXACTVIEW-1 (ADS-1B)    
1 38709U 12039C   26229.04719063  .00000055  00000+0  43594-4 0  9991
2 38709  98.9838 347.8296 0010760   2.1538 357.9685 14.24999393731373
SPOT 6                  
1 38755U 12047A   26229.25374764  .00000051  00000+0  20832-4 0  9995
2 38755  98.2075 295.8339 0001402  99.4315 260.7043 14.58552244741956
PLEIADES 1B             
1 39019U 12068A   26229.27244598  .00000032  00000+0  16693-4 0  9994
2 39019  98.1912 303.4709 0001062  82.0591 278.0729 14.58548262729754
GOKTURK 2               
1 39030U 12073A   26229.24703282  .00000422  00000+0  68756-4 0  9990
2 39030  97.6801  63.6157 0001941  98.9074 261.2356 14.75592332733513
LANDSAT 8               
1 39084U 13008A   26229.27831627  .00000179  00000+0  49870-4 0  9991
2 39084  98.2259 298.6743 0001281  92.9555 267.1790 14.57100877706798
SARAL                   
1 39086U 13009A   26229.28107799  .00000027  00000+0  25849-4 0  9993
2 39086  98.5567  55.0804 0003014 101.0770 259.0753 14.32901963704352
GAOFEN-1                
1 39150U 13018A   26229.32484569  .00000186  00000+0  33930-4 0  9999
2 39150  97.9055 300.1372 0018376  70.6689 289.6507 14.76548274717260
VNREDSAT 1              
1 39160U 13021B   26229.29249591 -.00000021  00000+0  45538-5 0  9991
2 39160  97.9031 280.3467 0001607  78.7490 281.3894 14.64721934709236
ARIRANG-5 (KOMPSAT-5)   
1 39227U 13042A   26229.28745707 -.00000222  00000+0 -11548-4 0  9994
2 39227  97.6206  55.1336 0002056 304.8330  55.2702 15.04479841713041
SKYSAT-A                
1 39418U 13066C   26229.09728436  .00001820  00000+0  10528-3 0  9990
2 39418  97.3772 276.5496 0022987 102.7943 257.5859 15.13266041697692
DUBAISAT-2              
1 39419U 13066D   26229.28593810  .00002521  00000+0  15646-3 0  9993
2 39419  97.4621 217.8627 0010843 172.3761 187.7636 15.10558362695614
GPM-CORE                
1 39574U 14009C   26229.24990277  .00006922  00000+0  15335-3 0  9991
2 39574  64.9699 103.4902 0012075 250.9473 109.0359 15.44533613707249
SENTINEL-1A             
1 39634U 14016A   26229.25664124  .00000176  00000+0  46744-4 0  9990
2 39634  98.1582 235.8472 0001418  84.5623 275.5738 14.59581212658928
KAZEOSAT 1              
1 39731U 14024A   26229.28948788  .00000009  00000+0  15872-4 0  9994
2 39731  98.3167 300.2031 0001219  92.8628 267.2701 14.42046647647365
ALOS-2                  
1 39766U 14029A   26229.27927237 -.00000558  00000+0 -67880-4 0  9999
2 39766  97.9230 325.5698 0001471  92.4189 267.7191 14.79465609660610
KAZEOSAT 2              
1 40010U 14033A   26229.32456356  .00000555  00000+0  69988-4 0  9999
2 40010  97.5381  65.7027 0009989 112.0524 248.1754 14.85532991658037
HODOYOSHI-4             
1 40011U 14033B   26229.28719525  .00000519  00000+0  61491-4 0  9996
2 40011  97.5474  51.1738 0025111 101.6828 258.7209 14.88255218657897
DEIMOS-2                
1 40013U 14033D   26229.27343388  .00001534  00000+0  14952-3 0  9994
2 40013  97.5730 101.5931 0002479  92.8209 267.3295 14.93868655646840
HODOYOSHI-3             
1 40015U 14033F   26228.94504581  .00000661  00000+0  81911-4 0  9993
2 40015  97.6490  29.5686 0033497 152.1924 208.1091 14.85498902656641
SPOT 7                  
1 40053U 14034A   26229.27279132  .00000048  00000+0  19067-4 0  9996
2 40053  98.0580 290.1774 0001602  80.1413 279.9969 14.61002049646059
SKYSAT-B                
1 40072U 14037D   26228.84348028  .00000774  00000+0  90673-4 0  9991
2 40072  98.3892 191.2888 0007010  82.7378 277.4634 14.88155128654982
WORLDVIEW-3 (WV-3)      
1 40115U 14048A   26229.27948706  .00000432  00000+0  56738-4 0  9993
2 40115  97.8527 303.2593 0002884 103.2244 256.9292 14.85105009650979
GAOFEN-2                
1 40118U 14049A   26229.32368319 -.00000040  00000+0  17866-5 0  9995
2 40118  98.0063 293.4597 0008321  43.1387 317.0476 14.80963872648285
YAOGAN-21               
1 40143U 14053A   26229.31139912  .00003409  00000+0  13085-3 0  9990
2 40143  97.1432 266.9420 0006436 226.5490 133.5214 15.27093402664284
YAOGAN-22               
1 40275U 14063A   26229.25463124 -.00000054  00000+0 -20015-4 0  9992
2 40275 100.7816  21.5656 0006751  56.7505 303.4252 13.15532421567841
ASNARO                  
1 40298U 14070A   26229.26652807  .00003846  00000+0  18293-3 0  9998
2 40298  97.3412 303.7278 0002308 356.8846   3.2375 15.19757991653282
YAOGAN-24               
1 40310U 14072A   26229.29213204  .00000520  00000+0  82822-4 0  9998
2 40310  98.1578   7.1661 0015763  70.6220 289.6692 14.76153220632732
CBERS 4                 
1 40336U 14079A   26229.30490701  .00000039  00000+0  28205-4 0  9994
2 40336  98.3482 284.2050 0001172 124.1577 235.9720 14.35522877612721
YAOGAN-26               
1 40362U 14088A   26229.26411448  .00018768  00000+0  34072-3 0  9995
2 40362  97.0672 228.1532 0004796 146.9060 213.2493 15.49605852647155
SMAP                    
1 40376U 15003A   26229.20804755  .00000211  00000+0  49901-4 0  9991
2 40376  98.1304 235.4448 0001374  91.8094 268.3265 14.63351817616546
KOMPSAT-3A              
1 40536U 15014A   26229.28700840  .00022508  00000+0  29392-3 0  9993
2 40536  97.6918 225.2783 0049366 314.7159  45.0080 15.57192742631311
SENTINEL-2A             
1 40697U 15028A   26229.33356387  .00000020  00000+0  24386-4 0  9999
2 40697  98.5650 303.3066 0001344  87.5033 272.6304 14.30821511582476
GAOFEN-8                
1 40701U 15030A   26229.27739753  .00008356  00000+0  16182-3 0  9997
2 40701  97.6879  66.4088 0007564 344.2683  15.8330 15.47971658620892
CARBONITE 1 (CBNT-1)    
1 40718U 15032D   26229.28475375  .00000296  00000+0  41804-4 0  9990
2 40718  97.6547  44.8128 0015954  93.1029 267.2011 14.83748596598405
YAOGAN-27               
1 40878U 15040A   26229.30125552  .00000419  00000+0  12140-2 0  9994
2 40878 100.1218 213.0455 0009012  74.1774 286.0332 13.16075171525709
GAOFEN-9 01             
1 40894U 15047A   26229.32996376  .00000505  00000+0  68158-4 0  9999
2 40894  97.6248 262.2402 0025884 301.1542  58.7135 14.82983089589254
YAOGAN-28               
1 41026U 15064A   26229.30000497  .00004894  00000+0  18112-3 0  9993
2 41026  97.3157   6.3755 0009712 342.8929  17.1982 15.28098529600013
YAOGAN-29               
1 41038U 15069A   26229.30297069  .00000377  00000+0  52937-4 0  9990
2 41038  98.0006 258.0267 0001916 135.2114 224.9254 14.83126695579683
KENT RIDGE 1            
1 41167U 15077B   26229.05861269  .00002899  00000+0  86986-4 0  9995
2 41167  14.9788 173.1742 0008153  17.5026 342.5576 15.23442552590392
GAOFEN-4                
1 41194U 15083A   26229.22802993 -.00000342  00000+0  00000+0 0  9990
2 41194   0.5104  83.7324 0003827 132.0432 297.6234  1.00272346 39148
JASON-3                 
1 41240U 16002A   26229.28428825 -.00000033  00000+0  11413-3 0  9999
2 41240  66.0441 357.3825 0008223 267.7426  92.2651 12.87626057495115
SENTINEL-3A             
1 41335U 16011A   26229.29965038  .00000045  00000+0  36716-4 0  9993
2 41335  98.6205 295.7919 0001020  90.0421 270.0877 14.26737776546779
ZIYUAN 3-02 (ZY 3-02)   
1 41556U 16033A   26229.29458346  .00003668  00000+0  16630-3 0  9997
2 41556  97.3796 303.8817 0014462  81.6609 278.6266 15.21369135567271
CARTOSAT-2C             
1 41599U 16040A   26229.31433153  .00002542  00000+0  12386-3 0  9998
2 41599  97.4427 288.4346 0007722 282.1568  77.8802 15.19228657562997
SKYSAT-C1               
1 41601U 16040C   26228.96762180  .00005816  00000+0  16176-3 0  9995
2 41601  96.9539 257.4214 0003718 130.5729 229.5840 15.37194219567208
LAPAN-A3                
1 41603U 16040E   26229.27622896  .00002090  00000+0  66897-4 0  9998
2 41603  97.1538 223.4436 0011048 147.0977 213.0956 15.33442190564173
GAOFEN-3                
1 41727U 16049A   26229.27524703  .00000204  00000+0  75012-4 0  9996
2 41727  98.4035 236.1453 0001408  64.3927 295.7408 14.42222504527454
SKYSAT-C4               
1 41771U 16058B   26229.29519781  .00012057  00000+0  21412-3 0  9990
2 41771  96.9157 248.5798 0003483  74.7617 285.4020 15.50330195554931
SKYSAT-C5               
1 41772U 16058C   26228.82898547  .00004800  00000+0  14779-3 0  9994
2 41772  97.0428 266.7168 0004290  92.0696 268.1039 15.34080942553048
SKYSAT-C2               
1 41773U 16058D   26228.97129878  .00007752  00000+0  17599-3 0  9997
2 41773  97.0158 248.8275 0003647 148.9224 211.2241 15.43294739554420
SKYSAT-C3               
1 41774U 16058E   26229.06699717  .00018099  00000+0  27144-3 0  9996
2 41774  96.8979 257.6657 0003346  97.4283 262.7353 15.54964061555565
ALSAT-1B                
1 41785U 16059C   26229.27039521  .00000374  00000+0  66520-4 0  9992
2 41785  97.7771 235.4047 0010281  36.9873 323.2042 14.72315196529560
PATHFINDER 1            
1 41787U 16059E   26228.94879532  .00000347  00000+0  68836-4 0  9993
2 41787  97.8204 225.4940 0028815  15.5907 344.6179 14.67726453528628
SCATSAT 1               
1 41790U 16059H   26228.73970958  .00000685  00000+0  96339-4 0  9992
2 41790  98.1146 293.1187 0055533  53.8888 306.7446 14.79654782110548
GOKTURK 1A              
1 41875U 16073A   26229.26137595  .00000066  00000+0  22124-4 0  9997
2 41875  98.1583 122.9784 0001484  85.6907 274.4464 14.62779909517756
RESOURCESAT-2A          
1 41877U 16074A   26229.30344868  .00000007  00000+0  23436-4 0  9990
2 41877  98.7492 302.2976 0001018 253.0175 107.0890 14.21616096502985
CARTOSAT-2D             
1 41948U 17008A   26229.27969964  .00002978  00000+0  14438-3 0  9993
2 41948  97.4054 287.4273 0005575  45.3401 314.8287 15.19277265526853
SENTINEL-2B             
1 42063U 17013A   26229.32635812  .00000025  00000+0  26324-4 0  9995
2 42063  98.5657 303.2276 0001261  90.5009 269.6319 14.30822301493380
CARTOSAT-2E             
1 42767U 17036C   26229.29778428  .00003225  00000+0  15633-3 0  9993
2 42767  97.4221 288.0761 0004565  96.1388 264.0367 15.19222348507423
FORMOSAT-5              
1 42920U 17049A   26229.22322175  .00000057  00000+0  25559-4 0  9994
2 42920  98.2219 303.1664 0010227 253.5802 106.4269 14.50900561475522
SENTINEL-5P             
1 42969U 17064A   26229.24255921  .00000026  00000+0  33177-4 0  9991
2 42969  98.7944 170.9454 0001320  84.9463 275.1864 14.19527600458222
SKYSAT-C11              
1 42987U 17068A   26228.88839206  .00022789  00000+0  27347-3 0  9999
2 42987  97.4426  20.5310 0001800 115.7974 244.3470 15.60915844492707
SKYSAT-C10              
1 42988U 17068B   26228.91200949  .00006199  00000+0  18150-3 0  9999
2 42988  97.4586   6.4225 0001713  98.6226 261.5212 15.35602078491679
SKYSAT-C9               
1 42989U 17068C   26228.90387972  .00008585  00000+0  19759-3 0  9998
2 42989  97.4507   7.9461 0006501 276.6055  83.4452 15.42865830492111
SKYSAT-C8               
1 42990U 17068D   26228.91958997  .00007073  00000+0  19136-3 0  9992
2 42990  97.4603   6.4656 0001556 103.9232 256.2186 15.38021873491641
SKYSAT-C7               
1 42991U 17068E   26228.91524201  .00007064  00000+0  19145-3 0  9990
2 42991  97.4614   7.4550 0004409 240.2007 119.8800 15.37962542491703
SKYSAT-C6               
1 42992U 17068F   26228.93540113  .00005746  00000+0  17645-3 0  9991
2 42992  97.4653   7.1682 0001458  34.9025 325.2313 15.34129319491637
CARTOSAT-2F             
1 43111U 18004A   26229.33103380  .00002284  00000+0  11167-3 0  9999
2 43111  97.4733 288.3518 0002674  71.9862 288.1664 15.19230247476615
GAOFEN-1 02             
1 43259U 18031A   26229.29238205  .00000609  00000+0  95004-4 0  9994
2 43259  98.0479 291.6333 0003211 148.3278 211.8126 14.76451545451710
GAOFEN-1 03             
1 43260U 18031B   26229.33812969  .00000388  00000+0  63128-4 0  9992
2 43260  98.0474 291.5299 0001798 198.5343 161.5801 14.76454056451716
GAOFEN-1 04             
1 43262U 18031D   26229.31379370 -.00000035  00000+0  24113-5 0  9998
2 43262  98.0480 291.7050 0001012 129.5320 230.5979 14.76445387451709
SENTINEL-3B             
1 43437U 18039A   26228.92213927  .00000046  00000+0  37182-4 0  9991
2 43437  98.6205 295.5695 0001668 100.5740 259.5629 14.26737695432784
GAOFEN-5 01             
1 43461U 18043A   26228.89348216  .00000185  00000+0  48138-4 0  9996
2 43461  98.4634 201.7747 0000602 216.8075 143.3083 14.60640989440556
GAOFEN-6                
1 43484U 18048A   26229.33754359  .00000361  00000+0  59452-4 0  9992
2 43484  98.0922 292.1117 0010250 341.8180  18.2661 14.76414199442416
GAOFEN-11 01            
1 43585U 18063A   26229.26263675  .00011816  00000+0  16553-3 0  9990
2 43585  97.1237 296.0236 0005543 103.3005 256.8869 15.56914890449844
ICESAT-2                
1 43613U 18070A   26229.24710208  .00005940  00000+0  21571-3 0  9994
2 43613  92.0068 307.4800 0001678 167.0126 193.1167 15.28274730441782
HYSIS                   
1 43719U 18096A   26229.25017265  .00000070  00000+0  16654-4 0  9999
2 43719  97.9795 295.5052 0000972  79.8956 280.2364 14.78660288416446
KAZSTSAT                
1 43783U 18099AB  26229.00466458  .00000379  00000+0  35002-4 0  9998
2 43783  97.4235 258.1847 0009670 207.1524 152.9196 14.99975600420420
SAUDISAT 5A             
1 43831U 18102A   26229.31639297  .00003427  00000+0  12582-3 0  9998
2 43831  97.3015 289.7255 0007666 278.0933  81.9437 15.28585271425019
SAUDISAT 5B             
1 43833U 18102C   26229.32555293  .00003364  00000+0  12271-3 0  9999
2 43833  97.3125 292.9148 0008396 280.6228  79.4067 15.28814663425131
GAOFEN-10R              
1 44622U 19066A   26229.28057635  .00000644  00000+0  85752-4 0  9991
2 44622  98.0540 183.3197 0004411 307.2351  52.8459 14.83114906371437
CARTOSAT-3              
1 44804U 19081A   26229.27853734  .00001666  00000+0  82314-4 0  9999
2 44804  97.4253 290.1460 0010594 305.3113  54.7131 15.19205455372740
GAOFEN-12 01            
1 44819U 19082A   26229.31343508  .00000210  00000+0  33999-4 0  9993
2 44819  97.8137 234.0884 0001552 125.4975 234.6382 14.80500235363130
CSG-1                   
1 44873U 19092A   26229.28341973  .00000194  00000+0  30964-4 0  9994
2 44873  97.8911  52.0104 0001482  88.0748 272.0635 14.82149481360528
NEMO-HD                 
1 46277U 20061F   26229.32791668  .00008138  00000+0  17038-3 0  9999
2 46277  97.1864 290.6951 0002319 120.4239 239.7240 15.45698112331423
SENTINEL-6A             
1 46984U 20086A   26229.14085445 -.00000071  00000+0 -44317-4 0  9991
2 46984  66.0422   8.4484 0007746 269.1269  90.8859 12.80930311268137
CAS500-1                
1 47932U 21022A   26229.28006575  .00004085  00000+0  19193-3 0  9998
2 47932  97.3805 123.2677 0007093  77.7406 282.4624 15.20144799300044
GAOFEN-12 02            
1 48079U 21026A   26229.26347931  .00000199  00000+0  33064-4 0  9993
2 48079  97.9966 227.2075 0005877  48.9197 311.2522 14.80336320290799
PLEIADES NEO 3          
1 48268U 21034A   26229.30250124  .00000162  00000+0  27251-4 0  9995
2 48268  97.8945 303.1905 0001509  95.1561 264.9825 14.81673206286702
PLEIADES NEO 4          
1 49070U 21073E   26229.33625544 -.00000310  00000+0 -32779-4 0  9993
2 49070  97.8945 303.2201 0001463  92.7890 267.3490 14.81672081270428
LANDSAT 9               
1 49260U 21088A   26229.17537585  .00000184  00000+0  50841-4 0  9996
2 49260  98.2239 298.6012 0001304 106.0077 254.1265 14.57113308259883
CSG-2                   
1 51444U 22008A   26229.31716150 -.00000367  00000+0 -39556-4 0  9994
2 51444  97.8907  52.0361 0001501  83.1021 277.0363 14.82147378245643
GAOFEN-12 03            
1 52912U 22069A   26229.23579589  .00000292  00000+0  45125-4 0  9990
2 52912  97.8178 115.5423 0001212  43.7208 316.4100 14.80115030223647
SWOT                    
1 54754U 22173A   26229.22452451  .00000017  00000+0  12984-4 0  9991
2 54754  77.6121 312.9153 0000031 268.2467  91.8680 14.00171746187698
GAOFEN-12 04            
1 57654U 23123A   26229.26205869  .00000543  00000+0  78902-4 0  9998
2 57654  97.9075 146.3538 0001059 307.2670  52.8445 14.79823231161664
PARS 1                  
1 59065U 24039Q   26229.27254589  .00007613  00000+0  15323-3 0  9999
2 59065  97.4884 212.1900 0007027 247.5822 112.4683 15.46875051138085
RESURS-P 4              
1 59371U 24061A   26229.32240626  .00001977  00000+0  65543-4 0  9994
2 59371  97.2782 176.1803 0001745  47.6297 312.5092 15.32436078133121
LEGION 1                
1 59625U 24081A   26229.24712715  .00002422  00000+0  12578-3 0  9997
2 59625  97.4981 306.4567 0010215 148.0019 212.1837 15.17026450126790
LEGION 2                
1 59626U 24081B   26229.27792084  .00002468  00000+0  12806-3 0  9992
2 59626  97.4981 306.5831 0012894 120.8080 239.4425 15.17010815126802
ALOS-4 (DAICHI-4)       
1 60182U 24123A   26229.29862596  .00000822  00000+0  11695-3 0  9993
2 60182  97.9220 325.5960 0001537  98.6040 261.5345 14.79473811114918
LEGION 3                
1 60452U 24146A   26229.02553462  .00002647  00000+0  14959-3 0  9991
2 60452  45.0018  64.3887 0007560 178.2175 181.8732 15.15845909111259
LEGION 4                
1 60453U 24146B   26229.22240318  .00002337  00000+0  13356-3 0  9993
2 60453  45.0014 155.1956 0010934 294.7672  65.2069 15.15863835110139
SENTINEL-2C             
1 60989U 24157A   26229.15154428  .00000048  00000+0  34790-4 0  9990
2 60989  98.5657 303.0599 0001409 105.0869 255.0470 14.30822634101701
IONOSFERA-M 1           
1 61735U 24199A   26229.23647494  .00000023  00000+0  29801-4 0  9995
2 61735  98.7078 101.7390 0001104  29.3570 330.7670 14.22764079136385
IONOSFERA-M 2           
1 61736U 24199B   26229.27063388  .00000017  00000+0  27040-4 0  9990
2 61736  98.7076 101.6830 0001728 110.0913 250.0451 14.22767323139517
PRSC-EO1                
1 62725U 25012A   26229.31170727  .00004355  00000+0  21962-3 0  9990
2 62725  97.4181 300.5610 0006841  63.5791 296.6144 15.17642249 87467
BIOMASS                 
1 63772U 25090A   26228.99119061  .00000630  00000+0  11950-3 0  9994
2 63772  98.0763  55.4306 0001317  89.3208 270.8147 14.67534402 69601
GOSAT-GW (IBUKI GW)     
1 64694U 25141A   26229.28073662  .00000452  00000+0  88050-4 0  9992
2 64694  98.0575 165.6059 0001423  85.1598 274.9770 14.67553695 60804
IONOSFERA-M 3           
1 64876U 25155A   26229.27265368  .00000014  00000+0  25913-4 0  9997
2 64876  98.6086 189.6553 0002358  62.2788 297.8629 14.21495228 55087
IONOSFERA-M 4           
1 64877U 25155B   26229.30738909  .00000010  00000+0  24235-4 0  9990
2 64877  98.6084 189.6060 0001723  65.0773 295.0584 14.21497754 55085
MICROCARB               
1 64899U 25156A   26228.81925480  .00000302  00000+0  54865-4 0  9998
2 64899  98.0049 305.0578 0018670  72.7080 287.6168 14.72914118 56896
CO3D 3                  
1 64900U 25156B   26229.27117772  .00002115  00000+0  10078-3 0  9990
2 64900  97.4341 307.0859 0000845  77.3589 282.7741 15.20205712 58815
CO3D 4                  
1 64901U 25156C   26227.49410604  .00002285  00000+0  10858-3 0  9997
2 64901  97.4337 305.3347 0002637  98.2663 261.8871 15.20217100 58546
CO3D 2                  
1 64902U 25156D   26229.23798719  .00002765  00000+0  13081-3 0  9992
2 64902  97.4337 306.9522 0001049 112.3304 247.8043 15.20205580 58808
CO3D 1                  
1 64903U 25156E   26229.23813986  .00002807  00000+0  13273-3 0  9997
2 64903  97.4337 306.9524 0001183  99.5442 260.5927 15.20201095 58809
PRSC-S1                 
1 65055U 25164A   26229.24872723  .00002561  00000+0  18034-3 0  9997
2 65055  41.1309 303.8007 0005674  40.6743 319.4494 15.06872188 57640
SENTINEL-6B             
1 66514U 25264A   26228.75082226 -.00000069  00000+0 -33406-4 0  9999
2 66514  66.0421   9.3847 0007778 267.8059  92.2066 12.80930380 34927
CAS500-3                
1 66655U 25274F   26229.25982358  .00000718  00000+0  83573-4 0  9996
2 66655  97.7418 155.9156 0005507  46.9335 313.2342 14.88267967 39238
CSG-3                   
1 67304U 26001A   26228.95851119  .00000145  00000+0  24813-4 0  9999
2 67304  97.8913  51.6892 0001436  87.3990 272.7387 14.82149821 33462
PRSC-E03                
1 68835U 26092A   26229.08959187  .00001581  00000+0  11099-3 0  9994
2 68835  38.0009  90.4717 0003306 162.6950 197.3925 15.06927762 17145
CAS500-2                
1 69013U 26100AK  26228.96138674  .00003760  00000+0  17543-3 0  9990
2 69013  97.3802 125.5997 0010084 142.1965 217.9981 15.20408786 16048
